CTC2_L_00480001-01
1 64833U 25619ZG  26070.40848380  .00000000  00000+0  00000-0 0  9996
2 64833  42.0000   0.0000 0000000   0.0000   0.0000 14.22770022    10
CTC2_L_00480002-01
1 64834U 26469HC  26070.40848380  .00000000  00000+0  00000-0 0  9991
2 64834  42.0000  12.0000 0000000   0.0000  48.0000 14.22770022    16
CTC2_L_00480003-01
1 64835U 22842DV  26070.40848380  .00000000  00000+0  00000-0 0  9993
2 64835  42.0000  24.0000 0000000   0.0000  96.0000 14.22770022    13
CTC2_L_00480004-01
1 64836U 25813CJ  26070.40848380  .00000000  00000+0  00000-0 0  9995
2 64836  42.0000  36.0000 0000000   0.0000 144.0000 14.22770022    11
CTC2_L_00480005-01
1 64837U 23903FS  26070.40848380  .00000000  00000+0  00000-0 0  9994
2 64837  42.0000  48.0000 0000000   0.0000 192.0000 14.22770022    18
CTC2_L_00480006-01
1 64838U 25977IS  26070.40848380  .00000000  00000+0  00000-0 0  9998
2 64838  42.0000  60.0000 0000000   0.0000 240.0000 14.22770022    17
CTC2_L_00480007-01
1 64839U 25273YH  26070.40848380  .00000000  00000+0  00000-0 0  9998
2 64839  42.0000  72.0000 0000000   0.0000 288.0000 14.22770022    13
CTC2_L_00480008-01
1 64840U 25155KG  26070.40848380  .00000000  00000+0  00000-0 0  9999
2 64840  42.0000  84.0000 0000000   0.0000 336.0000 14.22770022    12
CTC2_L_00480009-01
1 64841U 25527WT  26070.40848380  .00000000  00000+0  00000-0 0  9993
2 64841  42.0000  96.0000 0000000   0.0000  24.0000 14.22770022    10
CTC2_L_00480010-01
1 64842U 26739KW  26070.40848380  .00000000  00000+0  00000-0 0  9990
2 64842  42.0000 108.0000 0000000   0.0000  72.0000 14.22770022    18
CTC2_L_00480011-01
1 64843U 24267EK  26070.40848380  .00000000  00000+0  00000-0 0  9995
2 64843  42.0000 120.0000 0000000   0.0000 120.0000 14.22770022    17
CTC2_L_00480012-01
1 64844U 22002ZB  26070.40848380  .00000000  00000+0  00000-0 0  9991
2 64844  42.0000 132.0000 0000000   0.0000 168.0000 14.22770022    13
CTC2_L_00480013-01
1 64845U 26716NA  26070.40848380  .00000000  00000+0  00000-0 0  9998
2 64845  42.0000 144.0000 0000000   0.0000 216.0000 14.22770022    11
CTC2_L_00480014-01
1 64846U 23246I   26070.40848380  .00000000  00000+0  00000-0 0  9994
2 64846  42.0000 156.0000 0000000   0.0000 264.0000 14.22770022    18
CTC2_L_00480015-01
1 64847U 23296YN  26070.40848380  .00000000  00000+0  00000-0 0  9990
2 64847  42.0000 168.0000 0000000   0.0000 312.0000 14.22770022    16
CTC2_L_00480016-01
1 64848U 23229UQ  26070.40848380  .00000000  00000+0  00000-0 0  9997
2 64848  42.0000 180.0000 0000000   0.0000   0.0000 14.22770022    15
CTC2_L_00480017-01
1 64849U 23709XY  26070.40848380  .00000000  00000+0  00000-0 0  9991
2 64849  42.0000 192.0000 0000000   0.0000  48.0000 14.22770022    11
CTC2_L_00480018-01
1 64850U 23588HB  26070.40848380  .00000000  00000+0  00000-0 0  9998
2 64850  42.0000 204.0000 0000000   0.0000  96.0000 14.22770022    10
CTC2_L_00480019-01
1 64851U 26037JM  26070.40848380  .00000000  00000+0  00000-0 0  9991
2 64851  42.0000 216.0000 0000000   0.0000 144.0000 14.22770022    18
CTC2_L_00480020-01
1 64852U 22972XR  26070.40848380  .00000000  00000+0  00000-0 0  9996
2 64852  42.0000 228.0000 0000000   0.0000 192.0000 14.22770022    15
CTC2_L_00480021-01
1 64853U 22833SM  26070.40848380  .00000000  00000+0  00000-0 0  9993
2 64853  42.0000 240.0000 0000000   0.0000 240.0000 14.22770022    14
CTC2_L_00480022-01
1 64854U 23905DF  26070.40848380  .00000000  00000+0  00000-0 0  9995
2 64854  42.0000 252.0000 0000000   0.0000 288.0000 14.22770022    10
CTC2_L_00480023-01
1 64855U 26887ZH  26070.40848380  .00000000  00000+0  00000-0 0  9998
2 64855  42.0000 264.0000 0000000   0.0000 336.0000 14.22770022    18
CTC2_L_00480024-01
1 64856U 22120UN  26070.40848380  .00000000  00000+0  00000-0 0  9995
2 64856  42.0000 276.0000 0000000   0.0000  24.0000 14.22770022    16
CTC2_L_00480025-01
1 64857U 24167LV  26070.40848380  .00000000  00000+0  00000-0 0  9999
2 64857  42.0000 288.0000 0000000   0.0000  72.0000 14.22770022    13
CTC2_L_00480026-01
1 64858U 23926OR  26070.40848380  .00000000  00000+0  00000-0 0  9992
2 64858  42.0000 300.0000 0000000   0.0000 120.0000 14.22770022    13
CTC2_L_00480027-01
1 64859U 25667DW  26070.40848380  .00000000  00000+0  00000-0 0  9997
2 64859  42.0000 312.0000 0000000   0.0000 168.0000 14.22770022    19
CTC2_L_00480028-01
1 64860U 23959RW  26070.40848380  .00000000  00000+0  00000-0 0  9991
2 64860  42.0000 324.0000 0000000   0.0000 216.0000 14.22770022    18
CTC2_L_00480029-01
1 64861U 25437LC  26070.40848380  .00000000  00000+0  00000-0 0  9995
2 64861  42.0000 336.0000 0000000   0.0000 264.0000 14.22770022    15
CTC2_L_00480030-01
1 64862U 24302ME  26070.40848380  .00000000  00000+0  00000-0 0  9996
2 64862  42.0000 348.0000 0000000   0.0000 312.0000 14.22770022    13
